STARLINK-1307_new
1 15397C 20019AP  21326.16146563 -.00016839  00000-0 -11281-2 0  3264
2 15397  53.0537 348.0198 0001603  56.5341  46.8952 15.06420410    18
STARLINK-1307_old
1 25397C 20019AP  21325.10971763  .00001675  00000-0  11226-3 0  3254
2 25397  53.0533 352.7416 0001494  56.9833  99.6302 15.06395503    16
